OBJECT_NAME,OBJECT_ID,EPOCH,MEAN_MOTION,ECCENTRICITY,INCLINATION,RA_OF_ASC_NODE,ARG_OF_PERICENTER,MEAN_ANOMALY,EPHEMERIS_TYPE,CLASSIFICATION_TYPE,NORAD_CAT_ID,ELEMENT_SET_NO,REV_AT_EPOCH,BSTAR,MEAN_MOTION_DOT,MEAN_MOTION_DDOT
QB50P1,2014-033R,2026-07-17T00:01:44.720256,15.18681575,.0010459,98.0964,211.2472,119.5295,240.6982,0,U,40025,999,65755,.20647E-3,.4208E-4,0
DTUSAT-2,2014-033W,2026-07-16T22:55:56.464896,15.15364990,.00094083,98.0876,197.5823,126.6687,233.5410,0,U,40030,999,65719,.21093085E-3,.3907E-4,0
QB50P2,2014-033Y,2026-07-17T06:38:53.656224,15.15522510,.0009267,98.0764,197.0406,78.0159,282.2110,0,U,40032,999,65722,.21521E-3,.4006E-4,0
PERSEUS-M1,2014-033AF,2026-07-17T14:37:58.715040,14.95720558,.0011067,97.9655,143.2446,188.2040,171.9001,0,U,40039,999,65518,.74509E-4,.77E-5,0
POLYITAN-1,2014-033AJ,2026-07-17T14:01:25.438944,15.34270589,.0007692,98.0931,227.7445,57.2583,302.9398,0,U,40042,999,65825,.3009E-3,.9903E-4,0
TIGRISAT,2014-033AK,2026-07-17T08:46:30.769824,14.85252924,.0048463,97.7867,347.6934,337.1451,22.7607,0,U,40043,999,65010,.84001E-4,.68E-5,0
CANX-4,2014-034C,2026-07-17T14:47:58.083072,14.81313347,.0011375,98.3079,75.0414,274.1361,85.8550,0,U,40055,999,64903,.53443E-4,.36E-5,0
CANX-5,2014-034D,2026-07-17T14:45:11.992896,14.81330705,.0011377,98.3082,75.0848,274.3961,85.5950,0,U,40056,999,63984,.53318E-4,.359E-5,0
GONETS-M 10,2014-036C,2026-07-17T17:43:18.077952,12.42946410,.0022918,82.5125,288.7000,77.2101,283.1537,0,U,40063,999,54604,.52541E-3,.83E-6,0
METEOR-M 2,2014-037A,2026-07-17T16:40:29.021376,14.21469984,.0004989,98.5134,173.3561,318.6023,41.4776,0,U,40069,999,62365,.84778E-4,.143E-5,0
DX1,2014-037C,2026-07-17T17:09:21.307680,14.90064876,.0007313,98.3884,162.2739,162.0770,198.0705,0,U,40071,999,65065,.89595E-4,.803E-5,0
UKUBE-1,2014-037F,2026-07-17T10:37:05.819808,15.13969103,.0003208,98.4243,204.9043,84.0580,276.1015,0,U,40074,999,65313,.24726E-3,.4406E-4,0
GAOFEN-2,2014-049A,2026-07-17T17:11:54.767040,14.80927753,.0008362,98.0093,262.8925,127.4383,232.7591,0,U,40118,999,64375,-.11334E-4,-.141E-5,0
BRITE-PL2 (HEWELIUSZ),2014-049B,2026-07-16T21:31:13.773216,14.94689258,.00141718,97.9120,310.1310,16.6624,343.5058,0,U,40119,999,64588,.50494606E-4,.489E-5,0
CBERS 4,2014-079A,2026-07-17T16:56:36.843936,14.35516732,.000069,98.3513,254.5776,55.1977,304.9274,0,U,40336,999,60833,.5914E-4,.128E-5,0
SMAP,2015-003A,2026-07-17T15:27:08.801568,14.63390221,.0001616,98.1285,205.3081,93.9916,266.1471,0,U,40376,999,61207,.4016E-4,.161E-5,0
GONETS-M 11,2015-020A,2026-07-17T18:12:07.869888,12.42878502,.0015346,82.4864,11.9372,297.3236,62.6281,0,U,40552,999,51253,-.24952E-3,-.25E-6,0
GONETS-M 12,2015-020B,2026-07-17T15:37:34.316832,12.42891815,.0014228,82.4897,13.1360,281.3551,78.5930,0,U,40553,999,51251,-.56473E-3,-.68E-6,0
GONETS-M 13,2015-020C,2026-07-17T16:56:02.018688,12.42871597,.0012809,82.4860,11.7083,265.0711,94.8906,0,U,40554,999,51249,-.67279E-3,-.83E-6,0
DMC3-FM1,2015-032A,2026-07-17T17:07:42.737376,14.85769201,.0004628,97.6419,62.6857,328.2137,31.8799,0,U,40715,999,59444,.57957E-4,.452E-5,0
DMC3-FM2,2015-032B,2026-07-17T17:39:16.922592,14.85777502,.0005276,97.6473,64.3015,333.7754,26.3194,0,U,40716,999,59444,.71691E-4,.572E-5,0
DMC3-FM3,2015-032C,2026-07-17T16:36:12.788352,14.85762395,.0004568,97.6524,66.0316,335.8062,24.2938,0,U,40717,999,59444,-.42687E-4,-.422E-5,0
CARBONITE 1 (CBNT-1),2015-032D,2026-07-17T16:00:32.145408,14.83674456,.0014079,97.6520,15.4602,188.4369,171.6611,0,U,40718,999,59386,.17372E-3,.1386E-4,0
LILACSAT-2,2015-049K,2026-07-17T16:56:00.096288,15.52415357,.0008502,97.4621,236.7225,134.2405,225.9546,0,U,40908,999,60048,.17839E-3,.10807E-3,0
COSMOS 2507 (RODNIK-S 13),2015-050A,2026-07-17T15:49:07.514400,12.42928164,.0008978,82.4900,60.6951,287.2596,72.7501,0,U,40920,999,49064,.11527E-2,.17E-5,0
COSMOS 2508 (RODNIK-S 14),2015-050B,2026-07-17T16:40:40.749312,12.42915518,.0013835,82.4852,59.1660,321.2284,38.7802,0,U,40921,999,49063,.58815E-3,.91E-6,0
COSMOS 2509 (RODNIK-S 15),2015-050C,2026-07-17T17:11:02.628960,12.42884851,.0014492,82.4861,59.2584,338.6524,21.3950,0,U,40922,999,49067,.27417E-3,.48E-6,0
