QB50P1                  
1 40025U 14033R   26198.00121204  .00004208  00000+0  20647-3 0  9993
2 40025  98.0964 211.2472 0010459 119.5295 240.6982 15.18681575657555
DTUSAT-2                
1 40030U 14033W   26197.95551464  .00003907  00000+0  21093-3 0  9998
2 40030  98.0876 197.5823 0009408 126.6687 233.5410 15.15364990657198
QB50P2                  
1 40032U 14033Y   26198.27700991  .00004006  00000+0  21521-3 0  9994
2 40032  98.0764 197.0406 0009267  78.0159 282.2110 15.15522510657221
PERSEUS-M1              
1 40039U 14033AF  26198.60970735  .00000770  00000+0  74509-4 0  9992
2 40039  97.9655 143.2446 0011067 188.2040 171.9001 14.95720558655181
POLYITAN-1              
1 40042U 14033AJ  26198.58432221  .00009903  00000+0  30090-3 0  9999
2 40042  98.0931 227.7445 0007692  57.2583 302.9398 15.34270589658251
TIGRISAT                
1 40043U 14033AK  26198.36563391  .00000680  00000+0  84001-4 0  9994
2 40043  97.7867 347.6934 0048463 337.1451  22.7607 14.85252924650100
CANX-4                  
1 40055U 14034C   26198.61664448  .00000360  00000+0  53443-4 0  9992
2 40055  98.3079  75.0414 0011375 274.1361  85.8550 14.81313347649032
CANX-5                  
1 40056U 14034D   26198.61472214  .00000359  00000+0  53318-4 0  9990
2 40056  98.3082  75.0848 0011377 274.3961  85.5950 14.81330705639844
GONETS-M 10             
1 40063U 14036C   26198.73840368  .00000083  00000+0  52541-3 0  9992
2 40063  82.5125 288.7000 0022918  77.2101 283.1537 12.42946410546044
METEOR-M 2              
1 40069U 14037A   26198.69478034  .00000143  00000+0  84778-4 0  9996
2 40069  98.5134 173.3561 0004989 318.6023  41.4776 14.21469984623659
DX1                     
1 40071U 14037C   26198.71482995  .00000803  00000+0  89595-4 0  9998
2 40071  98.3884 162.2739 0007313 162.0770 198.0705 14.90064876650658
UKUBE-1                 
1 40074U 14037F   26198.44242847  .00004406  00000+0  24726-3 0  9998
2 40074  98.4243 204.9043 0003208  84.0580 276.1015 15.13969103653135
GAOFEN-2                
1 40118U 14049A   26198.71660610 -.00000141  00000+0 -11334-4 0  9998
2 40118  98.0093 262.8925 0008362 127.4383 232.7591 14.80927753643756
BRITE-PL2 (HEWELIUSZ)   
1 40119U 14049B   26197.89668719  .00000489  00000+0  50495-4 0  9999
2 40119  97.9120 310.1310 0014171  16.6624 343.5058 14.94689258645888
CBERS 4                 
1 40336U 14079A   26198.70598199  .00000128  00000+0  59140-4 0  9994
2 40336  98.3513 254.5776 0000690  55.1977 304.9274 14.35516732608338
SMAP                    
1 40376U 15003A   26198.64385187  .00000161  00000+0  40160-4 0  9999
2 40376  98.1285 205.3081 0001616  93.9916 266.1471 14.63390221612079
GONETS-M 11             
1 40552U 15020A   26198.75842442 -.00000025  00000+0 -24952-3 0  9999
2 40552  82.4864  11.9372 0015346 297.3236  62.6281 12.42878502512534
GONETS-M 12             
1 40553U 15020B   26198.65109163 -.00000068  00000+0 -56473-3 0  9995
2 40553  82.4897  13.1360 0014228 281.3551  78.5930 12.42891815512510
GONETS-M 13             
1 40554U 15020C   26198.70557892 -.00000083  00000+0 -67279-3 0  9991
2 40554  82.4860  11.7083 0012809 265.0711  94.8906 12.42871597512493
DMC3-FM1                
1 40715U 15032A   26198.71368909  .00000452  00000+0  57957-4 0  9994
2 40715  97.6419  62.6857 0004628 328.2137  31.8799 14.85769201594441
DMC3-FM2                
1 40716U 15032B   26198.73561253  .00000572  00000+0  71691-4 0  9998
2 40716  97.6473  64.3015 0005276 333.7754  26.3194 14.85777502594444
DMC3-FM3                
1 40717U 15032C   26198.69181468 -.00000422  00000+0 -42687-4 0  9999
2 40717  97.6524  66.0316 0004568 335.8062  24.2938 14.85762395594440
CARBONITE 1 (CBNT-1)    
1 40718U 15032D   26198.66703872  .00001386  00000+0  17372-3 0  9996
2 40718  97.6520  15.4602 0014079 188.4369 171.6611 14.83674456593861
LILACSAT-2              
1 40908U 15049K   26198.70555667  .00010807  00000+0  17839-3 0  9993
2 40908  97.4621 236.7225 0008502 134.2405 225.9546 15.52415357600482
COSMOS 2507 (RODNIK-S *)
1 40920U 15050A   26198.65911475  .00000170  00000+0  11527-2 0  9995
2 40920  82.4900  60.6951 0008978 287.2596  72.7501 12.42928164490642
COSMOS 2508 (RODNIK-S *)
1 40921U 15050B   26198.69491608  .00000091  00000+0  58815-3 0  9995
2 40921  82.4852  59.1660 0013835 321.2284  38.7802 12.42915518490634
COSMOS 2509 (RODNIK-S *)
1 40922U 15050C   26198.71600265  .00000048  00000+0  27417-3 0  9996
2 40922  82.4861  59.2584 0014492 338.6524  21.3950 12.42884851490671
